[Satellite]
VERSION=1.1
NAME=SUPERBIRD-C
NICKNAME=SUPERBIRD-C
TLE1=1 24880U 97036A   11059.62759505 -.00000150  00000-0  10000-3 0  9601
TLE2=2 24880   2.1273  74.3040 0004866 261.7533 205.9495  1.00271769 49716
